ARIANE 5 R/B            
1 28499U 04049H   26048.42189913  .00000918  00000+0  10731-3 0  9998
2 28499  98.2593 216.1250 0085252  57.3020 303.6378 14.85225370142785
CZ-2D R/B               
1 28738U 05024B   26049.00657354  .00036098  00000+0  47513-3 0  9998
2 28738  97.3602  63.4586 0007642  93.4067 266.8063 15.58347599136712
ALOS (DAICHI)           
1 28931U 06002A   26049.16863764  .00001334  00000+0  23205-3 0  9998
2 28931  98.1187   5.2273 0001724  57.2609 302.8763 14.69742075 70619
H-2A R/B                
1 28932U 06002B   26048.34829913  .00009760  00000+0  49488-3 0  9998
2 28932  98.2372 193.6357 0052275 311.2531  48.4201 15.15986519 91355
RESURS-DK 1             
1 29228U 06021A   26049.09414676  .00002111  00000+0  12669-3 0  9991
2 29228  69.9327 287.7110 0003498 188.7669 171.3436 15.12624950 84569
CZ-4B R/B               
1 29507U 06046C   26049.08194668  .00004506  00000+0  23058-3 0  9997
2 29507  97.5630  94.0422 0032733 338.1558  21.8277 15.16686147 57078
CZ-2C R/B               
1 31114U 07010B   26048.71802794  .00000106  00000+0  67698-4 0  9992
2 31114  98.3972 162.9991 0058730 353.4843   6.5565 14.20238899976881
COSMO-SKYMED 1          
1 31598U 07023A   26049.20644448  .00003834  00000+0  34375-3 0  9993
2 31598  97.8860 240.0845 0001411  91.9382 268.2001 14.96375609 11997
COSMOS 2428             
1 31792U 07029A   26048.78286520  .00000225  00000+0  14629-3 0  9991
2 31792  70.9401 245.1299 0007969 299.4387  60.5938 14.12938685961284
SL-16 R/B               
1 31793U 07029B   26048.77385458 -.00000004  00000+0  22978-4 0  9994
2 31793  70.9745 214.2466 0002316 282.2051 171.2838 14.14836446962552
KORONAS-FOTON           
1 33504U 09003A   26049.11513105  .00010552  00000+0  23991-3 0  9994
2 33504  82.4308 296.2207 0009471 220.7104 139.3436 15.42795880942729
CZ-2C R/B               
1 37731U 11030B   26048.89084120  .00001557  00000+0  20217-3 0  9990
2 37731  97.8512   6.5567 0054008  55.6594  32.1269 14.81140383787160
H-2A R/B                
1 38341U 12025E   26049.11904992  .00004269  00000+0  38890-3 0  9996
2 38341  98.4703  14.6071 0045283  18.9805 341.3089 14.94989677745293
SHIJIAN-16 (SJ-16)      
1 39358U 13057A   26049.18709362  .00001770  00000+0  17580-3 0  9999
2 39358  74.9700 222.0052 0016341 161.9708 198.2064 14.92265749668590
SL-4 R/B                
1 39679U 14021B   26049.08115609  .00012517  00000+0  28349-3 0  9997
2 39679  51.6060  72.8866 0098859  31.5102 329.1751 15.38494892653254
ALOS-2                  
1 39766U 14029A   26049.24062944  .00000620  00000+0  89845-4 0  9994
2 39766  97.9214 148.1184 0001546 102.2086 257.9299 14.79470247633995
YAOGAN-29               
1 41038U 15069A   26049.22739800  .00000720  00000+0  95291-4 0  9997
2 41038  98.0162  77.6028 0002760  68.9586 291.1922 14.82972645552995
ASTRO-H (HITOMI)        
1 41337U 16012A   26049.19893522  .00003135  00000+0  18316-3 0  9991
2 41337  30.9990 122.3104 0009886 137.1977 222.9432 15.09857626549280
HXMT (HUIYAN)           
1 42758U 17034A   26049.22656912  .00005576  00000+0  28395-3 0  9997
2 42758  43.0143 124.8578 0030609 112.5141 247.8951 15.17208736479580
CZ-2C R/B               
1 43521U 18054D   26049.24051909  .00620754  18287-3  83153-3 0  9990
2 43521  35.1265  75.4734 0011499 123.5552 236.6290 16.05366667425775
SAOCOM 1A               
1 43641U 18076A   26049.18244368 -.00000382  00000+0 -41452-4 0  9991
2 43641  97.8870 237.6307 0001344  79.9590 280.1775 14.82143191398473
H-2A R/B                
1 43682U 18084L   26049.12140332  .00017941  00000+0  43973-3 0  9991
2 43682  98.8744 262.3404 0026369  91.0914 269.3349 15.40462393402768
SAOCOM 1B               
1 46265U 20059A   26049.14619065  .00000835  00000+0  11141-3 0  9998
2 46265  97.8868 236.6930 0001484  85.9343 274.2040 14.82150467295855
CSS (TIANHE)            
1 48274U 21035A   26049.12845054  .00025542  00000+0  31225-3 0  9999
2 48274  41.4682 327.1080 0004277 131.4660 228.6546 15.59814503274551
COSMOS 2550             
1 48865U 21056A   26049.21588774 -.00000066  00000+0  38364-5 0  9999
2 48865  67.1424  99.8384 0008391 270.7327  89.2866 15.33834253260472
CZ-2C R/B               
1 52794U 22058K   26049.02237349  .00029094  00000+0  44943-3 0  9995
2 52794  50.1886  59.3450 0042100 117.1440 243.3832 15.52802963207070
CZ-2C R/B               
1 54039U 22132E   26049.01093027  .00037384  00000+0  45712-3 0  9990
2 54039  97.2955  51.7595 0019694 155.7795 204.4393 15.60085850187302
GSLV R/B                
1 54149U 22138AN  26048.72987521  .00003152  00000+0  27325-3 0  9992
2 54149  87.3873 173.0404 0020066 219.4341 140.5431 14.96615874180949
XRISM                   
1 57800U 23137A   26049.15795209  .00004992  00000+0  28385-3 0  9997
2 57800  31.0028  49.9666 0008256 204.8830 155.1411 15.11248312134837
ACS3                    
1 59588U 24077B   26048.83420043  .00018092  00000+0  14852-1 0  9999
2 59588  97.2179 354.4099 0048221 134.7289 225.7815 13.88745291 91443
SZ-21 MODULE            
1 66515U 25246C   26049.13466482  .00031807  00000+0  29213-3 0  9995
2 66515  41.4764 323.5946 0001868 299.0458  61.0196 15.67019082 15001
